start=new Date('2022-09-25T00:00:00.000Z').valueOf();
sats=[{"SEMIMAJOR_AXIS":"6925.322","TIME_SYSTEM":"UTC","ECCENTRICITY":"0.00011610","FILE":"3582188","TLE_LINE2":"2 48373  53.0534 258.6795 0001161  86.4877 273.6245 15.06408709 76897","REV_AT_EPOCH":"7689","MEAN_MOTION_DOT":"0.00001017","MEAN_MOTION":"15.06408709","OBJECT_TYPE":"PAYLOAD","BSTAR":"0.00008715400000","CLASSIFICATION_TYPE":"U","EPOCH":"2022-09-24T07:19:36.643008","TLE_LINE1":"1 48373U 21038W   22267.30528522  .00001017  00000-0  87154-4 0  9993","OBJECT_NAME":"STARLINK-2609","LAUNCH_DATE":"2021-05-04","PERIAPSIS":"546.383","ARG_OF_PERICENTER":"86.4877","PERIOD":"95.592","CENTER_NAME":"EARTH","MEAN_ELEMENT_THEORY":"SGP4","MEAN_ANOMALY":"273.6245","SITE":"AFETR","RA_OF_ASC_NODE":"258.6795","RCS_SIZE":"LARGE","EPHEMERIS_TYPE":"0","GP_ID":"213369900","NORAD_CAT_ID":"48373","COUNTRY_CODE":"US","INCLINATION":"53.0534","MEAN_MOTION_DDOT":"0.0000000000000","APOAPSIS":"547.991","OBJECT_ID":"2021-038W","ELEMENT_SET_NO":"999","REF_FRAME":"TEME","DECAY_DATE":null},{"RA_OF_ASC_NODE":"256.9076","GP_ID":"213404054","NORAD_CAT_ID":"48374","RCS_SIZE":"LARGE","EPHEMERIS_TYPE":"0","APOAPSIS":"548.260","MEAN_MOTION_DDOT":"0.0000000000000","ELEMENT_SET_NO":"999","OBJECT_ID":"2021-038X","COUNTRY_CODE":"US","INCLINATION":"53.0545","REF_FRAME":"TEME","DECAY_DATE":null,"ECCENTRICITY":"0.00014930","TLE_LINE2":"2 48374  53.0545 256.9076 0001493  83.1506 276.9653 15.06395922 76952","FILE":"3582616","SEMIMAJOR_AXIS":"6925.361","TIME_SYSTEM":"UTC","REV_AT_EPOCH":"7695","MEAN_MOTION_DOT":"0.00002961","TLE_LINE1":"1 48374U 21038X   22267.69874388  .00002961  00000-0  21764-3 0  9993","EPOCH":"2022-09-24T16:46:11.471232","OBJECT_NAME":"STARLINK-2604","LAUNCH_DATE":"2021-05-04","MEAN_MOTION":"15.06395922","OBJECT_TYPE":"PAYLOAD","BSTAR":"0.00021764000000","CLASSIFICATION_TYPE":"U","SITE":"AFETR","PERIAPSIS":"546.192","CENTER_NAME":"EARTH","PERIOD":"95.592","ARG_OF_PERICENTER":"83.1506","MEAN_ANOMALY":"276.9653","MEAN_ELEMENT_THEORY":"SGP4"},{"SEMIMAJOR_AXIS":"6925.351","TIME_SYSTEM":"UTC","ECCENTRICITY":"0.00015060","TLE_LINE2":"2 48375  53.0537 257.8250 0001506  59.4639 300.6498 15.06399116 76924","FILE":"3582188","REV_AT_EPOCH":"7692","MEAN_MOTION_DOT":"0.00001538","MEAN_MOTION":"15.06399116","OBJECT_TYPE":"PAYLOAD","BSTAR":"0.00012215000000","CLASSIFICATION_TYPE":"U","EPOCH":"2022-09-24T11:55:38.544096","TLE_LINE1":"1 48375U 21038Y   22267.49697389  .00001538  00000-0  12215-3 0  9996","OBJECT_NAME":"STARLINK-2603","LAUNCH_DATE":"2021-05-04","PERIAPSIS":"546.173","PERIOD":"95.592","CENTER_NAME":"EARTH","ARG_OF_PERICENTER":"59.4639","MEAN_ELEMENT_THEORY":"SGP4","MEAN_ANOMALY":"300.6498","SITE":"AFETR","RA_OF_ASC_NODE":"257.8250","RCS_SIZE":"LARGE","EPHEMERIS_TYPE":"0","GP_ID":"213368905","NORAD_CAT_ID":"48375","COUNTRY_CODE":"US","INCLINATION":"53.0537","MEAN_MOTION_DDOT":"0.0000000000000","APOAPSIS":"548.259","OBJECT_ID":"2021-038Y","ELEMENT_SET_NO":"999","DECAY_DATE":null,"REF_FRAME":"TEME"},{"SEMIMAJOR_AXIS":"6925.285","TIME_SYSTEM":"UTC","ECCENTRICITY":"0.00013880","TLE_LINE2":"2 48376  53.0530 256.9573 0001388  82.8424 277.2723 15.06420742 76959","FILE":"3582616","REV_AT_EPOCH":"7695","MEAN_MOTION_DOT":"-0.00000610","MEAN_MOTION":"15.06420742","OBJECT_TYPE":"PAYLOAD","BSTAR":"-0.00002202200000","CLASSIFICATION_TYPE":"U","TLE_LINE1":"1 48376U 21038Z   22267.69230306 -.00000610  00000-0 -22022-4 0  9991","EPOCH":"2022-09-24T16:36:54.984384","OBJECT_NAME":"STARLINK-2610","LAUNCH_DATE":"2021-05-04","PERIAPSIS":"546.189","PERIOD":"95.591","ARG_OF_PERICENTER":"82.8424","MEAN_ELEMENT_THEORY":"SGP4","CENTER_NAME":"EARTH","MEAN_ANOMALY":"277.2723","SITE":"AFETR","RA_OF_ASC_NODE":"256.9573","RCS_SIZE":"LARGE","EPHEMERIS_TYPE":"0","GP_ID":"213403053","NORAD_CAT_ID":"48376","COUNTRY_CODE":"US","INCLINATION":"53.0530","APOAPSIS":"548.111","MEAN_MOTION_DDOT":"0.0000000000000","OBJECT_ID":"2021-038Z","ELEMENT_SET_NO":"999","DECAY_DATE":null,"REF_FRAME":"TEME"},{"REV_AT_EPOCH":"7751","MEAN_MOTION_DOT":"0.00001031","TLE_LINE2":"2 48377  53.0535 257.8500 0001819  70.1180 290.0005 15.06395786 77511","FILE":"3582066","ECCENTRICITY":"0.00018190","SEMIMAJOR_AXIS":"6925.361","TIME_SYSTEM":"UTC","SITE":"AFETR","PERIOD":"95.592","MEAN_ANOMALY":"290.0005","MEAN_ELEMENT_THEORY":"SGP4","ARG_OF_PERICENTER":"70.1180","CENTER_NAME":"EARTH","PERIAPSIS":"545.967","LAUNCH_DATE":"2021-05-04","TLE_LINE1":"1 48377U 21038AA  22267.48959519  .00001031  00000-0  88106-4 0  9994","EPOCH":"2022-09-24T11:45:01.024416","OBJECT_NAME":"STARLINK-2499","BSTAR":"0.00008810600000","CLASSIFICATION_TYPE":"U","MEAN_MOTION":"15.06395786","OBJECT_TYPE":"PAYLOAD","NORAD_CAT_ID":"48377","GP_ID":"213345394","RCS_SIZE":"LARGE","EPHEMERIS_TYPE":"0","RA_OF_ASC_NODE":"257.8500","DECAY_DATE":null,"REF_FRAME":"TEME","OBJECT_ID":"2021-038AA","ELEMENT_SET_NO":"999","APOAPSIS":"548.486","MEAN_MOTION_DDOT":"0.0000000000000","INCLINATION":"53.0535","COUNTRY_CODE":"US"},{"RCS_SIZE":"LARGE","EPHEMERIS_TYPE":"0","GP_ID":"213368655","NORAD_CAT_ID":"48378","RA_OF_ASC_NODE":"258.7796","REF_FRAME":"TEME","DECAY_DATE":null,"COUNTRY_CODE":"US","INCLINATION":"53.0539","APOAPSIS":"548.320","MEAN_MOTION_DDOT":"0.0000000000000","OBJECT_ID":"2021-038AB","ELEMENT_SET_NO":"999","REV_AT_EPOCH":"7689","MEAN_MOTION_DOT":"0.00000630","SEMIMAJOR_AXIS":"6925.389","TIME_SYSTEM":"UTC","ECCENTRICITY":"0.00015400","FILE":"3582188","TLE_LINE2":"2 48378  53.0539 258.7796 0001540  74.9491 285.1668 15.06386878 76893","PERIAPSIS":"546.187","ARG_OF_PERICENTER":"74.9491","PERIOD":"95.593","CENTER_NAME":"EARTH","MEAN_ELEMENT_THEORY":"SGP4","MEAN_ANOMALY":"285.1668","SITE":"AFETR","MEAN_MOTION":"15.06386878","OBJECT_TYPE":"PAYLOAD","BSTAR":"0.00006121800000","CLASSIFICATION_TYPE":"U","TLE_LINE1":"1 48378U 21038AB  22267.28687383  .00000630  00000-0  61218-4 0  9999","EPOCH":"2022-09-24T06:53:05.898912","OBJECT_NAME":"STARLINK-2526","LAUNCH_DATE":"2021-05-04"},{"PERIAPSIS":"546.186","CENTER_NAME":"EARTH","PERIOD":"95.591","MEAN_ANOMALY":"289.8747","ARG_OF_PERICENTER":"70.2396","MEAN_ELEMENT_THEORY":"SGP4","SITE":"AFETR","OBJECT_TYPE":"PAYLOAD","MEAN_MOTION":"15.06411174","CLASSIFICATION_TYPE":"U","BSTAR":"0.00023656000000","OBJECT_NAME":"STARLINK-2612","TLE_LINE1":"1 48379U 21038AC  22267.74759599  .00003245  00000-0  23656-3 0  9998","EPOCH":"2022-09-24T17:56:32.293536","LAUNCH_DATE":"2021-05-04","MEAN_MOTION_DOT":"0.00003245","REV_AT_EPOCH":"7696","TIME_SYSTEM":"UTC","SEMIMAJOR_AXIS":"6925.314","ECCENTRICITY":"0.00014340","TLE_LINE2":"2 48379  53.0529 256.7012 0001434  70.2396 289.8747 15.06411174 76962","FILE":"3582616","REF_FRAME":"TEME","DECAY_DATE":null,"COUNTRY_CODE":"US","INCLINATION":"53.0529","MEAN_MOTION_DDOT":"0.0000000000000","APOAPSIS":"548.172","ELEMENT_SET_NO":"999","OBJECT_ID":"2021-038AC","EPHEMERIS_TYPE":"0","RCS_SIZE":"LARGE","GP_ID":"213404305","NORAD_CAT_ID":"48379","RA_OF_ASC_NODE":"256.7012"},{"PERIOD":"95.592","ARG_OF_PERICENTER":"58.1497","MEAN_ELEMENT_THEORY":"SGP4","CENTER_NAME":"EARTH","MEAN_ANOMALY":"301.9659","PERIAPSIS":"546.036","SITE":"AFETR","CLASSIFICATION_TYPE":"U","BSTAR":"0.00009202400000","OBJECT_TYPE":"PAYLOAD","MEAN_MOTION":"15.06396368","LAUNCH_DATE":"2021-05-04","OBJECT_NAME":"STARLINK-2614","TLE_LINE1":"1 48380U 21038AD  22267.70611420  .00001089  00000-0  92024-4 0  9996","EPOCH":"2022-09-24T16:56:48.266880","MEAN_MOTION_DOT":"0.00001089","REV_AT_EPOCH":"7695","TIME_SYSTEM":"UTC","SEMIMAJOR_AXIS":"6925.360","TLE_LINE2":"2 48380  53.0540 256.8860 0001716  58.1497 301.9659 15.06396368 76953","FILE":"3582616","ECCENTRICITY":"0.00017160","REF_FRAME":"TEME","DECAY_DATE":null,"INCLINATION":"53.0540","COUNTRY_CODE":"US","ELEMENT_SET_NO":"999","OBJECT_ID":"2021-038AD","APOAPSIS":"548.413","MEAN_MOTION_DDOT":"0.0000000000000","EPHEMERIS_TYPE":"0","RCS_SIZE":"LARGE","NORAD_CAT_ID":"48380","GP_ID":"213403554","RA_OF_ASC_NODE":"256.8860"},{"RA_OF_ASC_NODE":"259.1013","RCS_SIZE":"LARGE","EPHEMERIS_TYPE":"0","NORAD_CAT_ID":"48381","GP_ID":"213369901","INCLINATION":"53.0548","COUNTRY_CODE":"US","ELEMENT_SET_NO":"999","OBJECT_ID":"2021-038AE","APOAPSIS":"548.138","MEAN_MOTION_DDOT":"0.0000000000000","DECAY_DATE":null,"REF_FRAME":"TEME","SEMIMAJOR_AXIS":"6925.409","TIME_SYSTEM":"UTC","TLE_LINE2":"2 48381  53.0548 259.1013 0001248  77.6835 282.4294 15.06380441 76885","FILE":"3582188","ECCENTRICITY":"0.00012480","REV_AT_EPOCH":"7688","MEAN_MOTION_DOT":"0.00003839","BSTAR":"0.00027662000000","CLASSIFICATION_TYPE":"U","MEAN_MOTION":"15.06380441","OBJECT_TYPE":"PAYLOAD","LAUNCH_DATE":"2021-05-04","TLE_LINE1":"1 48381U 21038AE  22267.21315326  .00003839  00000-0  27662-3 0  9999","EPOCH":"2022-09-24T05:06:56.441664","OBJECT_NAME":"STARLINK-2630","PERIOD":"95.593","MEAN_ELEMENT_THEORY":"SGP4","CENTER_NAME":"EARTH","MEAN_ANOMALY":"282.4294","ARG_OF_PERICENTER":"77.6835","PERIAPSIS":"546.409","SITE":"AFETR"},{"PERIAPSIS":"546.129","PERIOD":"95.592","CENTER_NAME":"EARTH","MEAN_ELEMENT_THEORY":"SGP4","MEAN_ANOMALY":"293.8508","ARG_OF_PERICENTER":"66.2644","SITE":"AFETR","MEAN_MOTION":"15.06402895","OBJECT_TYPE":"PAYLOAD","BSTAR":"0.00010119000000","CLASSIFICATION_TYPE":"U","TLE_LINE1":"1 48382U 21038AF  22267.27579996  .00001226  00000-0  10119-3 0  9998","EPOCH":"2022-09-24T06:37:09.116544","OBJECT_NAME":"STARLINK-2585","LAUNCH_DATE":"2021-05-04","REV_AT_EPOCH":"7689","MEAN_MOTION_DOT":"0.00001226","SEMIMAJOR_AXIS":"6925.340","TIME_SYSTEM":"UTC","ECCENTRICITY":"0.00015530","FILE":"3582188","TLE_LINE2":"2 48382  53.0528 258.8260 0001553  66.2644 293.8508 15.06402895 76898","REF_FRAME":"TEME","DECAY_DATE":null,"COUNTRY_CODE":"US","INCLINATION":"53.0528","APOAPSIS":"548.280","MEAN_MOTION_DDOT":"0.0000000000000","ELEMENT_SET_NO":"999","OBJECT_ID":"2021-038AF","RCS_SIZE":"LARGE","EPHEMERIS_TYPE":"0","GP_ID":"213369155","NORAD_CAT_ID":"48382","RA_OF_ASC_NODE":"258.8260"}];
